{
  "type": "FeatureCollection",
  "features": [
    {
      "type": "Feature",
      "properties": {
        "norad_id": 47007,
        "name": "FENGYUN 1C DEB",
        "group": "fengyun-1c-debris",
        "lat": -74.77081582687227,
        "lon": -125.4137815587277,
        "alt_km": 1058.6956879079225,
        "timestamp": "2025-12-05T20:43:02.345512+00:00",
        "meta_object_name": "FENGYUN 1C DEB",
        "meta_object_id": "1999-025FAH",
        "meta_epoch": "2025-12-02T20:54:11.445984",
        "meta_mean_motion": 13.97102442,
        "meta_eccentricity": 0.02354948,
        "meta_inclination": 98.2081,
        "meta_ra_of_asc_node": 199.8928,
        "meta_arg_of_pericenter": 81.4238,
        "meta_mean_anomaly": 281.3533,
        "meta_ephemeris_type": 0,
        "meta_classification_type": "U",
        "meta_norad_cat_id": 47007,
        "meta_element_set_no": 999,
        "meta_rev_at_epoch": 78711,
        "meta_bstar": 0.0027434055,
        "meta_mean_motion_dot": 4.814e-05,
        "meta_mean_motion_ddot": 0,
        "tle_line1": "1 47007U 99025FAH 25336.87096581  .00004814  00000+0  27434-2 0  9994",
        "tle_line2": "2 47007  98.2081 199.8928 0235494  81.4238 281.3533 13.97102442787119"
      },
      "geometry": {
        "type": "Point",
        "coordinates": [
          -125.4137815587277,
          -74.77081582687227
        ]
      }
    },
    {
      "type": "Feature",
      "properties": {
        "norad_id": 47009,
        "name": "FENGYUN 1C DEB",
        "group": "fengyun-1c-debris",
        "lat": -81.03413060241539,
        "lon": 50.35949826818391,
        "alt_km": 863.8708576044164,
        "timestamp": "2025-12-05T20:43:02.345522+00:00",
        "meta_object_name": "FENGYUN 1C DEB",
        "meta_object_id": "1999-025FAK",
        "meta_epoch": "2025-12-02T05:09:31.123584",
        "meta_mean_motion": 13.37303446,
        "meta_eccentricity": 0.0352227,
        "meta_inclination": 98.9376,
        "meta_ra_of_asc_node": 321.2954,
        "meta_arg_of_pericenter": 285.6992,
        "meta_mean_anomaly": 70.555,
        "meta_ephemeris_type": 0,
        "meta_classification_type": "U",
        "meta_norad_cat_id": 47009,
        "meta_element_set_no": 999,
        "meta_rev_at_epoch": 58668,
        "meta_bstar": 0.00057132,
        "meta_mean_motion_dot": 3.87e-06,
        "meta_mean_motion_ddot": 0,
        "tle_line1": "1 47009U 99025FAK 25336.21494356  .00000387  00000+0  57132-3 0  9996",
        "tle_line2": "2 47009  98.9376 321.2954 0352227 285.6992  70.5550 13.37303446586681"
      },
      "geometry": {
        "type": "Point",
        "coordinates": [
          50.35949826818391,
          -81.03413060241539
        ]
      }
    },
    {
      "type": "Feature",
      "properties": {
        "norad_id": 47012,
        "name": "FENGYUN 1C DEB",
        "group": "fengyun-1c-debris",
        "lat": 17.002353958344692,
        "lon": -143.8309963888212,
        "alt_km": 918.1098053724882,
        "timestamp": "2025-12-05T20:43:02.345532+00:00",
        "meta_object_name": "FENGYUN 1C DEB",
        "meta_object_id": "1999-025FAN",
        "meta_epoch": "2025-11-21T11:34:23.982528",
        "meta_mean_motion": 13.77887873,
        "meta_eccentricity": 0.01636388,
        "meta_inclination": 98.7555,
        "meta_ra_of_asc_node": 205.6016,
        "meta_arg_of_pericenter": 120.2349,
        "meta_mean_anomaly": 241.5118,
        "meta_ephemeris_type": 0,
        "meta_classification_type": "U",
        "meta_norad_cat_id": 47012,
        "meta_element_set_no": 999,
        "meta_rev_at_epoch": 54280,
        "meta_bstar": 0.00045664705,
        "meta_mean_motion_dot": 4.67e-06,
        "meta_mean_motion_ddot": 0,
        "tle_line1": "1 47012U 99025FAN 25325.48222202  .00000467  00000+0  45665-3 0  9993",
        "tle_line2": "2 47012  98.7555 205.6016 0163638 120.2349 241.5118 13.77887873542803"
      },
      "geometry": {
        "type": "Point",
        "coordinates": [
          -143.8309963888212,
          17.002353958344692
        ]
      }
    },
    {
      "type": "Feature",
      "properties": {
        "norad_id": 47013,
        "name": "FENGYUN 1C DEB",
        "group": "fengyun-1c-debris",
        "lat": 73.62327110266881,
        "lon": 21.290646803641984,
        "alt_km": 811.8733334324261,
        "timestamp": "2025-12-05T20:43:02.345576+00:00",
        "meta_object_name": "FENGYUN 1C DEB",
        "meta_object_id": "1999-025FAP",
        "meta_epoch": "2025-11-16T11:10:59.954016",
        "meta_mean_motion": 14.24672933,
        "meta_eccentricity": 0.00559466,
        "meta_inclination": 98.0819,
        "meta_ra_of_asc_node": 32.3431,
        "meta_arg_of_pericenter": 238.0397,
        "meta_mean_anomaly": 121.5338,
        "meta_ephemeris_type": 0,
        "meta_classification_type": "U",
        "meta_norad_cat_id": 47013,
        "meta_element_set_no": 999,
        "meta_rev_at_epoch": 72885,
        "meta_bstar": 0.0028202138,
        "meta_mean_motion_dot": 6.632e-05,
        "meta_mean_motion_ddot": 0,
        "tle_line1": "1 47013U 99025FAP 25320.46597169  .00006632  00000+0  28202-2 0  9991",
        "tle_line2": "2 47013  98.0819  32.3431 0055946 238.0397 121.5338 14.24672933728853"
      },
      "geometry": {
        "type": "Point",
        "coordinates": [
          21.290646803641984,
          73.62327110266881
        ]
      }
    },
    {
      "type": "Feature",
      "properties": {
        "norad_id": 47015,
        "name": "FENGYUN 1C DEB",
        "group": "fengyun-1c-debris",
        "lat": 11.935933557892717,
        "lon": -142.2330752785803,
        "alt_km": 504.4715618835535,
        "timestamp": "2025-12-05T20:43:02.345588+00:00",
        "meta_object_name": "FENGYUN 1C DEB",
        "meta_object_id": "1999-025FAR",
        "meta_epoch": "2025-12-04T10:03:57.079296",
        "meta_mean_motion": 14.87138971,
        "meta_eccentricity": 0.0176185,
        "meta_inclination": 98.7128,
        "meta_ra_of_asc_node": 34.3253,
        "meta_arg_of_pericenter": 139.2122,
        "meta_mean_anomaly": 222.2436,
        "meta_ephemeris_type": 0,
        "meta_classification_type": "U",
        "meta_norad_cat_id": 47015,
        "meta_element_set_no": 999,
        "meta_rev_at_epoch": 64258,
        "meta_bstar": 0.0017777,
        "meta_mean_motion_dot": 0.00021243,
        "meta_mean_motion_ddot": 0,
        "tle_line1": "1 47015U 99025FAR 25338.41941064  .00021243  00000+0  17777-2 0  9994",
        "tle_line2": "2 47015  98.7128  34.3253 0176185 139.2122 222.2436 14.87138971642587"
      },
      "geometry": {
        "type": "Point",
        "coordinates": [
          -142.2330752785803,
          11.935933557892717
        ]
      }
    },
    {
      "type": "Feature",
      "properties": {
        "norad_id": 47025,
        "name": "FENGYUN 1C DEB",
        "group": "fengyun-1c-debris",
        "lat": 80.15568756319479,
        "lon": 119.48743307705125,
        "alt_km": 720.5674934153994,
        "timestamp": "2025-12-05T20:43:02.345598+00:00",
        "meta_object_name": "FENGYUN 1C DEB",
        "meta_object_id": "1999-025FBB",
        "meta_epoch": "2025-12-02T01:41:08.457792",
        "meta_mean_motion": 14.46038389,
        "meta_eccentricity": 0.00405714,
        "meta_inclination": 99.0334,
        "meta_ra_of_asc_node": 181.9095,
        "meta_arg_of_pericenter": 28.306,
        "meta_mean_anomaly": 122.9233,
        "meta_ephemeris_type": 0,
        "meta_classification_type": "U",
        "meta_norad_cat_id": 47025,
        "meta_element_set_no": 999,
        "meta_rev_at_epoch": 62587,
        "meta_bstar": 0.0023139931,
        "meta_mean_motion_dot": 8.293e-05,
        "meta_mean_motion_ddot": 0,
        "tle_line1": "1 47025U 99025FBB 25336.07023678  .00008293  00000+0  23140-2 0  9998",
        "tle_line2": "2 47025  99.0334 181.9095 0040571  28.3060 122.9233 14.46038389625873"
      },
      "geometry": {
        "type": "Point",
        "coordinates": [
          119.48743307705125,
          80.15568756319479
        ]
      }
    },
    {
      "type": "Feature",
      "properties": {
        "norad_id": 47036,
        "name": "FENGYUN 1C DEB",
        "group": "fengyun-1c-debris",
        "lat": -62.819940382453446,
        "lon": 40.82786167503125,
        "alt_km": 898.4885838794553,
        "timestamp": "2025-12-05T20:43:02.345609+00:00",
        "meta_object_name": "FENGYUN 1C DEB",
        "meta_object_id": "1999-025FBN",
        "meta_epoch": "2025-12-02T22:20:16.253088",
        "meta_mean_motion": 14.15166678,
        "meta_eccentricity": 0.00686917,
        "meta_inclination": 98.7236,
        "meta_ra_of_asc_node": 20.5619,
        "meta_arg_of_pericenter": 125.2896,
        "meta_mean_anomaly": 359.1571,
        "meta_ephemeris_type": 0,
        "meta_classification_type": "U",
        "meta_norad_cat_id": 47036,
        "meta_element_set_no": 999,
        "meta_rev_at_epoch": 59788,
        "meta_bstar": 0.00019399927,
        "meta_mean_motion_dot": 3.43e-06,
        "meta_mean_motion_ddot": 0,
        "tle_line1": "1 47036U 99025FBN 25336.93074367  .00000343  00000+0  19400-3 0  9999",
        "tle_line2": "2 47036  98.7236  20.5619 0068691 125.2896 359.1571 14.15166678597886"
      },
      "geometry": {
        "type": "Point",
        "coordinates": [
          40.82786167503125,
          -62.819940382453446
        ]
      }
    }
  ]
}